[
    {
        "Altitude(m)": 558927.9791122966,
        "Argument of Periapsis(deg)": 0.013245982221427002,
        "Eccentricity": 0.0,
        "Inclination(deg)": 53.0,
        "Latitude(deg)": -20.103993741714458,
        "Longitude(deg)": -92.49758937829019,
        "Mean Anomaly(deg)": 334.7286857351552,
        "RAAN(deg)": 24.980286737056034,
        "Satellite Name": "Starlink Shell 1 129",
        "Satellite Number": 129,
        "Semi-Major Axis(m)": 6931778.249405717,
        "Time(s)": 380
    },
    {
        "Altitude(m)": 558770.9464224065,
        "Argument of Periapsis(deg)": 0.013594560700938237,
        "Eccentricity": 0.0,
        "Inclination(deg)": 53.0,
        "Latitude(deg)": -19.61994274457371,
        "Longitude(deg)": -92.11387028727893,
        "Mean Anomaly(deg)": -24.644483061288053,
        "RAAN(deg)": 24.979767966978564,
        "Satellite Name": "Starlink Shell 1 129",
        "Satellite Number": 129,
        "Semi-Major Axis(m)": 6931778.249405717,
        "Time(s)": 390
    },
    {
        "Altitude(m)": 558615.4214702758,
        "Argument of Periapsis(deg)": 0.013943139180449475,
        "Eccentricity": 0.0,
        "Inclination(deg)": 53.0,
        "Latitude(deg)": -19.134854360175797,
        "Longitude(deg)": -91.73267631678264,
        "Mean Anomaly(deg)": -24.017651857731337,
        "RAAN(deg)": 24.979249196901087,
        "Satellite Name": "Starlink Shell 1 129",
        "Satellite Number": 129,
        "Semi-Major Axis(m)": 6931778.249405717,
        "Time(s)": 400
    },
    {
        "Altitude(m)": 558461.4577272813,
        "Argument of Periapsis(deg)": 0.014291717659960712,
        "Eccentricity": 0.0,
        "Inclination(deg)": 53.0,
        "Latitude(deg)": -18.648761255978457,
        "Longitude(deg)": -91.35393012507413,
        "Mean Anomaly(deg)": -23.390820654174632,
        "RAAN(deg)": 24.978730426823617,
        "Satellite Name": "Starlink Shell 1 129",
        "Satellite Number": 129,
        "Semi-Major Axis(m)": 6931778.249405717,
        "Time(s)": 410
    },
    {
        "Altitude(m)": 558309.1078199729,
        "Argument of Periapsis(deg)": 0.014640296139471948,
        "Eccentricity": 0.0,
        "Inclination(deg)": 53.0,
        "Latitude(deg)": -18.161695547006296,
        "Longitude(deg)": -90.97755586742413,
        "Mean Anomaly(deg)": -22.763989450617874,
        "RAAN(deg)": 24.978211656746147,
        "Satellite Name": "Starlink Shell 1 129",
        "Satellite Number": 129,
        "Semi-Major Axis(m)": 6931778.249405717,
        "Time(s)": 420
    },
    {
        "Altitude(m)": 558158.4235067106,
        "Argument of Periapsis(deg)": 0.014988874618983185,
        "Eccentricity": 0.0,
        "Inclination(deg)": 53.0,
        "Latitude(deg)": -17.6736888158315,
        "Longitude(deg)": -90.60347866653079,
        "Mean Anomaly(deg)": -22.137158247061162,
        "RAAN(deg)": 24.97769288666867,
        "Satellite Name": "Starlink Shell 1 129",
        "Satellite Number": 129,
        "Semi-Major Axis(m)": 6931778.249405717,
        "Time(s)": 430
    },
    {
        "Altitude(m)": 558009.4556547479,
        "Argument of Periapsis(deg)": 0.015337453098494424,
        "Eccentricity": 0.0,
        "Inclination(deg)": 53.0,
        "Latitude(deg)": -17.184772132115267,
        "Longitude(deg)": -90.23162408263086,
        "Mean Anomaly(deg)": -21.510327043504503,
        "RAAN(deg)": 24.977174116591197,
        "Satellite Name": "Starlink Shell 1 129",
        "Satellite Number": 129,
        "Semi-Major Axis(m)": 6931778.249405717,
        "Time(s)": 440
    },
    {
        "Altitude(m)": 557862.254217693,
        "Argument of Periapsis(deg)": 0.01568603157800566,
        "Eccentricity": 0.0,
        "Inclination(deg)": 53.0,
        "Latitude(deg)": -16.694976071720998,
        "Longitude(deg)": -89.86191909621733,
        "Mean Anomaly(deg)": -20.883495839947795,
        "RAAN(deg)": 24.976655346513724,
        "Satellite Name": "Starlink Shell 1 129",
        "Satellite Number": 129,
        "Semi-Major Axis(m)": 6931778.249405717,
        "Time(s)": 450
    },
    {
        "Altitude(m)": 557716.8682134848,
        "Argument of Periapsis(deg)": 0.0160346100575169,
        "Eccentricity": 0.0,
        "Inclination(deg)": 53.0,
        "Latitude(deg)": -16.20433073541139,
        "Longitude(deg)": -89.49429157766022,
        "Mean Anomaly(deg)": -20.256664636391037,
        "RAAN(deg)": 24.976136576436254,
        "Satellite Name": "Starlink Shell 1 129",
        "Satellite Number": 129,
        "Semi-Major Axis(m)": 6931778.249405717,
        "Time(s)": 460
    },
    {
        "Altitude(m)": 557573.3457027512,
        "Argument of Periapsis(deg)": 0.016383188537028134,
        "Eccentricity": 0.0,
        "Inclination(deg)": 53.0,
        "Latitude(deg)": -15.71286576713984,
        "Longitude(deg)": -89.12866975664524,
        "Mean Anomaly(deg)": -19.629833432834324,
        "RAAN(deg)": 24.975617806358777,
        "Satellite Name": "Starlink Shell 1 129",
        "Satellite Number": 129,
        "Semi-Major Axis(m)": 6931778.249405717,
        "Time(s)": 470
    },
    {
        "Altitude(m)": 557431.7337676899,
        "Argument of Periapsis(deg)": 0.01673176701653937,
        "Eccentricity": 0.0,
        "Inclination(deg)": 53.0,
        "Latitude(deg)": -15.220610371948297,
        "Longitude(deg)": -88.76498320434199,
        "Mean Anomaly(deg)": -19.003002229277666,
        "RAAN(deg)": 24.975099036281303,
        "Satellite Name": "Starlink Shell 1 129",
        "Satellite Number": 129,
        "Semi-Major Axis(m)": 6931778.249405717,
        "Time(s)": 480
    },
    {
        "Altitude(m)": 557292.078491399,
        "Argument of Periapsis(deg)": 0.017080345496050607,
        "Eccentricity": 0.0,
        "Inclination(deg)": 53.0,
        "Latitude(deg)": -14.72759333348371,
        "Longitude(deg)": -88.40316230258597,
        "Mean Anomaly(deg)": -18.376171025720907,
        "RAAN(deg)": 24.974580266203834,
        "Satellite Name": "Starlink Shell 1 129",
        "Satellite Number": 129,
        "Semi-Major Axis(m)": 6931778.249405717,
        "Time(s)": 490
    },
    {
        "Altitude(m)": 557154.424937693,
        "Argument of Periapsis(deg)": 0.017428923975561842,
        "Eccentricity": 0.0,
        "Inclination(deg)": 53.0,
        "Latitude(deg)": -14.23384303114551,
        "Longitude(deg)": -88.0431377129796,
        "Mean Anomaly(deg)": -17.749339822164195,
        "RAAN(deg)": 24.97406149612636,
        "Satellite Name": "Starlink Shell 1 129",
        "Satellite Number": 129,
        "Semi-Major Axis(m)": 6931778.249405717,
        "Time(s)": 500
    },
    {
        "Altitude(m)": 557018.8171314399,
        "Argument of Periapsis(deg)": 0.01777750245507308,
        "Eccentricity": 0.0,
        "Inclination(deg)": 53.0,
        "Latitude(deg)": -13.739387456874857,
        "Longitude(deg)": -87.684841358811,
        "Mean Anomaly(deg)": -17.12250861860754,
        "RAAN(deg)": 24.973542726048887,
        "Satellite Name": "Starlink Shell 1 129",
        "Satellite Number": 129,
        "Semi-Major Axis(m)": 6931778.249405717,
        "Time(s)": 510
    },
    {
        "Altitude(m)": 556885.2980393674,
        "Argument of Periapsis(deg)": 0.018126080934584315,
        "Eccentricity": 0.0,
        "Inclination(deg)": 53.0,
        "Latitude(deg)": -13.244254231599495,
        "Longitude(deg)": -87.32820589406772,
        "Mean Anomaly(deg)": -16.49567741505073,
        "RAAN(deg)": 24.973023955971417,
        "Satellite Name": "Starlink Shell 1 129",
        "Satellite Number": 129,
        "Semi-Major Axis(m)": 6931778.249405717,
        "Time(s)": 520
    },
    {
        "Altitude(m)": 556753.9095514547,
        "Argument of Periapsis(deg)": 0.018474659414095554,
        "Eccentricity": 0.0,
        "Inclination(deg)": 53.0,
        "Latitude(deg)": -12.748470621346465,
        "Longitude(deg)": -86.97316417244006,
        "Mean Anomaly(deg)": -15.86884621149407,
        "RAAN(deg)": 24.972505185893944,
        "Satellite Name": "Starlink Shell 1 129",
        "Satellite Number": 129,
        "Semi-Major Axis(m)": 6931778.249405717,
        "Time(s)": 530
    },
    {
        "Altitude(m)": 556624.6924627734,
        "Argument of Periapsis(deg)": 0.018823237893606792,
        "Eccentricity": 0.0,
        "Inclination(deg)": 53.0,
        "Latitude(deg)": -12.252063553032889,
        "Longitude(deg)": -86.61965022920461,
        "Mean Anomaly(deg)": -15.242015007937356,
        "RAAN(deg)": 24.97198641581647,
        "Satellite Name": "Starlink Shell 1 129",
        "Satellite Number": 129,
        "Semi-Major Axis(m)": 6931778.249405717,
        "Time(s)": 540
    },
    {
        "Altitude(m)": 556497.6864559243,
        "Argument of Periapsis(deg)": 0.019171816373118027,
        "Eccentricity": 0.0,
        "Inclination(deg)": 53.0,
        "Latitude(deg)": -11.755059629950553,
        "Longitude(deg)": -86.2675987502583,
        "Mean Anomaly(deg)": -14.615183804380598,
        "RAAN(deg)": 24.971467645738993,
        "Satellite Name": "Starlink Shell 1 129",
        "Satellite Number": 129,
        "Semi-Major Axis(m)": 6931778.249405717,
        "Time(s)": 550
    },
    {
        "Altitude(m)": 556372.9300840223,
        "Argument of Periapsis(deg)": 0.019520394852629266,
        "Eccentricity": 0.0,
        "Inclination(deg)": 53.0,
        "Latitude(deg)": -11.257485146954052,
        "Longitude(deg)": -85.91694454118907,
        "Mean Anomaly(deg)": -13.988352600823891,
        "RAAN(deg)": 24.970948875661524,
        "Satellite Name": "Starlink Shell 1 129",
        "Satellite Number": 129,
        "Semi-Major Axis(m)": 6931778.249405717,
        "Time(s)": 560
    }
]